FENGYUN 1C DEB          
1 29919U 99025HR  17345.68226617  .00000021  00000-0  48256-4 0  9995
2 29919  98.4711  13.9486 0140009  50.5006  61.8411 13.83991791551040
